TDRS 3                  
1 19548U 88091B   23031.26815220 -.00000298  00000+0  00000+0 0  9996
2 19548  13.5464 349.5679 0040568 334.5348 213.5088  1.00263865113023
HST                     
1 20580U 90037B   23031.55986403  .00003761  00000+0  20410-3 0  9999
2 20580  28.4705  96.1763 0002151 351.6418 117.9489 15.11804083600750
TDRS 5                  
1 21639U 91054B   23031.34922771  .00000086  00000+0  00000+0 0  9996
2 21639  14.2180   2.8792 0027506 345.3610 100.4515  1.00289478115359
TDRS 6                  
1 22314U 93003B   23031.34905110 -.00000295  00000+0  00000+0 0  9994
2 22314  14.1437   6.1432 0007094 130.6879  73.2479  1.00274356110040
TDRS 7                  
1 23613U 95035B   23031.36664858 -.00000201  00000+0  00000+0 0  9994
2 23613  13.8887 356.8540 0025498  49.1000 301.1126  1.00275330100887
ISS (ZARYA)             
1 25544U 98067A   23031.69840606  .00013050  00000+0  23358-3 0  9990
2 25544  51.6434 284.5820 0004797 296.5619 162.1841 15.50319480380627
LANDSAT 7               
1 25682U 99020A   23031.60881220  .00000576  00000+0  12953-3 0  9999
2 25682  97.9503  75.7042 0001647  91.0342 269.1031 14.59905969265855
TERRA                   
1 25994U 99068A   23031.53596184  .00000457  00000+0  10685-3 0  9999
2 25994  98.1122 103.2169 0002622 118.7959 353.3804 14.59006875229732
TDRS 8                  
1 26388U 00034A   23031.51099369 -.00000237  00000+0  00000+0 0  9996
2 26388  10.7266  40.9658 0021225 329.9808  32.7671  1.00276111 82829
TIMED                   
1 26998U 01055B   23031.49875559  .00001450  00000+0  15742-3 0  9997
2 26998  74.0717 185.1866 0001641 315.0212  45.0836 14.89159814146943
TDRS 9                  
1 27389U 02011A   23031.68340775  .00000045  00000+0  00000+0 0  9999
2 27389   9.5167  58.3643 0001603  45.5702 137.7993  0.98980456 78071
AQUA                    
1 27424U 02022A   23031.57335418  .00000916  00000+0  21103-3 0  9995
2 27424  98.2733 336.6201 0000775 102.8085  13.2178 14.57639111103416
TDRS 10                 
1 27566U 02055A   23031.44537367  .00000087  00000+0  00000+0 0  9999
2 27566   8.6201  48.6576 0007547 317.8412 113.1721  1.00277217 73878
SORCE                   
1 27651U 03004A   23031.38199359  .00002702  00000+0  28239-3 0  9991
2 27651  39.9966  24.1313 0023203 275.4628  84.3515 14.90813712 87088
AURA                    
1 28376U 04026A   23031.54866062  .00000921  00000+0  21470-3 0  9992
2 28376  98.2353 336.8841 0001095  94.6964 265.4360 14.57060094986447
SWIFT                   
1 28485U 04047A   23031.59697685  .00005942  00000+0  34193-3 0  9998
2 28485  20.5561 146.8374 0009618 318.0802  41.8896 15.08404122998017
THEMIS A                
1 30580U 07004A   23031.07866917 -.00000339  00000+0  66437-1 0  9992
2 30580  12.1955 320.1026 8354683 213.9574 320.8402  0.87832549 30438
THEMIS D                
1 30797U 07004D   23031.07134206 -.00000295  00000+0  00000+0 0  9994
2 30797   8.2283 307.6232 8305700 229.7785 328.6926  0.87771937 30230
THEMIS E                
1 30798U 07004E   23031.08059942 -.00000264  00000+0  00000+0 0  9995
2 30798   9.4208 324.5988 8302996 214.6819 328.8171  0.87858695 55072
AIM                     
1 31304U 07015A   23031.08064274  .00015799  00000+0  67526-3 0  9993
2 31304  97.8631 324.5345 0002596 347.1037  13.0131 15.22946175865763
FGRST (GLAST)           
1 33053U 08029A   23031.30622366  .00002819  00000+0  13850-3 0  9999
2 33053  25.5840  52.6250 0011300 302.5400  57.4044 15.13054080808231
WISE                    
1 36119U 09071A   23031.07857995  .00008678  00000+0  23965-3 0  9992
2 36119  97.2161  66.1040 0002115 156.0945 204.0398 15.37293766730425
TDRS 11                 
1 39070U 13004A   23031.53016998  .00000086  00000+0  00000+0 0  9999
2 39070   2.7649 353.2337 0004587  42.7840 110.8899  1.00274586 34336
TDRS 12                 
1 39504U 14004A   23031.41328182 -.00000261  00000+0  00000+0 0  9996
2 39504   3.6917 351.6972 0000071 151.2371  95.2894  1.00271440 31910
GPM-CORE                
1 39574U 14009C   23031.54301141  .00025228  00000+0  35503-3 0  9997
2 39574  64.9979 131.9180 0012136 268.4059  91.5697 15.56532319507092
MMS 1                   
1 40482U 15011A   23030.76485291 -.00002484  00000+0  00000+0 0  9993
2 40482  29.2749  84.2419 8972292  75.6022 351.7734  0.28544724 13945
MMS 2                   
1 40483U 15011B   23030.76763068 -.00002484  00000+0  00000+0 0  9995
2 40483  29.2761  84.2360 8971094  75.6021 352.0602  0.28546563 14002
MMS 3                   
1 40484U 15011C   23030.85651957 -.00002496  00000+0  00000+0 0  9992
2 40484  29.2702  84.2475 8971809  75.5936   1.2049  0.28536788 13693
MMS 4                   
1 40485U 15011D   23026.72110291 -.00001853  00000+0  00000+0 0  9991
2 40485  29.2541  84.5212 8964043  75.3079 296.4554  0.28515654 13884
TDRS 13                 
1 42915U 17047A   23031.20399882 -.00000092  00000+0  00000+0 0  9990
2 42915   4.1689 335.9790 0013529 107.8456 108.1092  1.00271993 19988
JPSS-1                  
1 43013U 17073A   23031.52270273  .00000091  00000+0  63787-4 0  9990
2 43013  98.7405 331.7402 0001613  93.5138 266.6223 14.19551850269582
